OBJECT_NAME,OBJECT_ID,EPOCH,MEAN_MOTION,ECCENTRICITY,INCLINATION,RA_OF_ASC_NODE,ARG_OF_PERICENTER,MEAN_ANOMALY,EPHEMERIS_TYPE,CLASSIFICATION_TYPE,NORAD_CAT_ID,ELEMENT_SET_NO,REV_AT_EPOCH,BSTAR,MEAN_MOTION_DOT,MEAN_MOTION_DDOT
SCD 1,1993-009B,2026-06-16T20:10:52.113216,14.46118733,.0042091,24.9678,209.7158,134.0546,37.9167,0,U,22490,999,76106,.41011E-4,.336E-5,0
TECHSAT 1B (GO-32),1998-043D,2026-06-16T23:51:34.291296,14.24428360,.000105,99.0067,160.7479,163.2340,196.8873,0,U,25397,999,45130,.35298E-4,.35E-6,0
SCD 2,1998-060A,2026-06-17T04:18:34.238016,14.45525886,.0016946,24.9954,72.2040,122.8124,10.9716,0,U,25504,999,46032,.4826E-4,.355E-5,0
DLR-TUBSAT,1999-029B,2026-06-16T22:46:31.880640,14.52426807,.0014067,98.6695,163.4452,355.9687,4.1392,0,U,25757,999,43321,.24847E-4,.53E-6,0
TERRA,1999-068A,2026-06-17T03:48:52.035840,14.61103081,.000158,97.9456,217.7063,189.5468,254.9608,0,U,25994,999,40960,.73529E-4,.317E-5,0
MAROC-TUBSAT,2001-056D,2026-06-17T02:02:55.668192,13.70262455,.002033,99.8081,344.9430,141.5122,330.5128,0,U,27004,999,22617,.46529E-5,-.42E-6,0
AQUA,2002-022A,2026-06-17T04:42:56.761056,14.62158088,.0001104,98.4277,137.4794,53.1321,36.7458,0,U,27424,999,28327,.13132E-3,.611E-5,0
SHIYAN-1 (SY-1),2004-012A,2026-06-17T02:50:27.297600,15.33759861,.0005599,97.8694,246.1820,33.0466,327.1124,0,U,28220,999,21108,.35142E-3,.11396E-3,0
AURA,2004-026A,2026-06-17T02:57:11.106144,14.61329086,.0001214,98.3417,124.5758,75.4851,284.6484,0,U,28376,999,16620,.13677E-3,.627E-5,0
IRS-P5 (CARTOSAT-1),2005-017A,2026-06-17T01:52:45.010272,14.91049192,.0002571,97.5307,191.1477,80.0181,280.1328,0,U,28649,999,14380,.13247E-3,.1259E-4,0
SINAH 1,2005-043D,2026-06-17T04:34:48.376416,14.64157572,.0013125,98.2861,302.5128,276.7869,83.1840,0,U,28893,999,10052,.52376E-4,.226E-5,0
RESURS-DK 1,2006-021A,2026-06-16T21:40:32.558304,15.13218071,.0006912,69.9342,340.2878,291.8758,68.1672,0,U,29228,999,10253,.11317E-3,.1907E-4,0
ARIRANG-2 (KOMPSAT-2),2006-031A,2026-06-17T04:02:25.203264,14.64659383,.0015932,97.8299,352.6156,74.5668,50.4674,0,U,29268,999,6147,.14713E-4,.33E-6,0
LAPAN-TUBSAT,2007-001A,2026-06-17T04:29:17.805696,14.85948953,.0011874,98.1335,167.4108,179.1902,180.9333,0,U,29709,999,5115,-.18559E-4,-.22E-5,0
HAIYANG-1B,2007-010A,2026-06-17T05:09:12.419712,14.31026885,.0013015,98.3495,150.0588,196.2368,163.8401,0,U,31113,999,64,.41575E-4,.68E-6,0
COSMO-SKYMED 1,2007-023A,2026-06-17T04:50:39.638688,14.97099186,.0001293,97.8847,0.0576,98.0483,262.0885,0,U,31598,999,2979,.19676E-3,.221E-4,0
TERRASAR-X,2007-026A,2026-06-15T13:04:49.653696,15.19148908,.00016045,97.4452,174.2739,89.1769,270.9649,0,U,31698,999,5297,.17393623E-4,.298E-5,0
WORLDVIEW-1 (WV-1),2007-041A,2026-06-17T03:51:30.934080,15.24266290,.0002265,97.3882,287.9044,21.6029,338.5303,0,U,32060,999,4287,.19765E-3,.4754E-4,0
YAOGAN-3,2007-055A,2026-06-17T04:40:02.371296,14.90781893,.0001952,97.8151,198.0721,81.6543,278.4896,0,U,32289,999,587,.12918E-3,.1214E-4,0
COSMO-SKYMED 2,2007-059A,2026-06-17T03:51:54.433152,14.82155005,.0001351,97.8886,351.7594,87.1710,272.9658,0,U,32376,999,200,.46291E-4,.316E-5,0
RADARSAT-2,2007-061A,2026-06-17T05:56:43.465920,14.29982189,.0001311,98.5770,175.1793,83.9483,276.1849,0,U,32382,999,96596,.68463E-4,.133E-5,0
CARTOSAT-2A,2008-021A,2026-06-17T04:21:48.428064,14.79240086,.0013193,97.7631,216.8906,108.8315,251.4329,0,U,32783,999,97880,.10944E-3,.764E-5,0
HUANJING 1A (HJ-1A),2008-041A,2026-06-17T05:36:36.235008,14.83984870,.0019943,97.6676,154.0702,134.5866,225.6980,0,U,33320,999,95841,.84507E-4,.654E-5,0
HUANJING 1B (HJ-1B),2008-041B,2026-06-17T04:52:05.796768,14.83319000,.0036067,97.6513,157.2124,180.8084,179.3079,0,U,33321,999,95841,.16608E-3,.1323E-4,0
GEOEYE 1,2008-042A,2026-06-17T03:38:44.973024,14.64725682,.0005399,98.1236,242.0836,69.7772,290.4011,0,U,33331,999,95014,.77243E-4,.364E-5,0
THEOS,2008-049A,2026-06-17T04:19:31.719936,14.20132720,.0001219,98.5571,225.4640,80.1710,279.9605,0,U,33396,999,91796,-.71677E-4,-.195E-5,0
COSMO-SKYMED 3,2008-054A,2026-06-17T03:26:08.890080,15.06953532,.0014174,97.8281,26.7131,267.1356,92.8249,0,U,33412,999,95693,.18046E-3,.2638E-4,0
YAOGAN-4,2008-061A,2026-06-17T02:23:28.502016,14.83200033,.001573,97.9308,101.6106,72.7422,287.5512,0,U,33446,999,94565,.10458E-3,.802E-5,0
GOSAT (IBUKI),2009-002A,2026-06-16T20:46:30.285120,14.67539630,.0001527,98.0890,278.9506,82.1774,277.9604,0,U,33492,999,93141,.17441E-3,.941E-5,0
DEIMOS-1,2009-041A,2026-06-17T04:28:22.590048,14.75235825,.0001684,97.7400,325.4136,130.9671,229.1685,0,U,35681,999,90688,.12527E-4,.37E-6,0
DUBAISAT-1,2009-041B,2026-06-16T22:52:54.193728,14.75122266,.0011666,98.0052,301.2136,74.4564,285.7932,0,U,35682,999,90506,.94042E-4,.584E-5,0
