SCD 1                   
1 22490U 93009B   26167.84088094  .00000336  00000+0  41011-4 0  9993
2 22490  24.9678 209.7158 0042091 134.0546  37.9167 14.46118733761067
TECHSAT 1B (GO-32)      
1 25397U 98043D   26167.99414689  .00000035  00000+0  35298-4 0  9990
2 25397  99.0067 160.7479 0001050 163.2340 196.8873 14.24428360451307
SCD 2                   
1 25504U 98060A   26168.17956294  .00000355  00000+0  48260-4 0  9991
2 25504  24.9954  72.2040 0016946 122.8124  10.9716 14.45525886460329
DLR-TUBSAT              
1 25757U 99029B   26167.94898010  .00000053  00000+0  24847-4 0  9992
2 25757  98.6695 163.4452 0014067 355.9687   4.1392 14.52426807433218
TERRA                   
1 25994U 99068A   26168.15893560  .00000317  00000+0  73529-4 0  9991
2 25994  97.9456 217.7063 0001580 189.5468 254.9608 14.61103081409600
MAROC-TUBSAT            
1 27004U 01056D   26168.08536653 -.00000042  00000+0  46529-5 0  9991
2 27004  99.8081 344.9430 0020330 141.5122 330.5128 13.70262455226176
AQUA                    
1 27424U 02022A   26168.19649029  .00000611  00000+0  13132-3 0  9998
2 27424  98.4277 137.4794 0001104  53.1321  36.7458 14.62158088283272
SHIYAN-1 (SY-1)         
1 28220U 04012A   26168.11837150  .00011396  00000+0  35142-3 0  9997
2 28220  97.8694 246.1820 0005599  33.0466 327.1124 15.33759861211082
AURA                    
1 28376U 04026A   26168.12304521  .00000627  00000+0  13677-3 0  9990
2 28376  98.3417 124.5758 0001214  75.4851 284.6484 14.61329086166201
IRS-P5 (CARTOSAT-1)     
1 28649U 05017A   26168.07829873  .00001259  00000+0  13247-3 0  9995
2 28649  97.5307 191.1477 0002571  80.0181 280.1328 14.91049192143805
SINAH 1                 
1 28893U 05043D   26168.19083769  .00000226  00000+0  52376-4 0  9994
2 28893  98.2861 302.5128 0013125 276.7869  83.1840 14.64157572100528
RESURS-DK 1             
1 29228U 06021A   26167.90315461  .00001907  00000+0  11317-3 0  9995
2 29228  69.9342 340.2878 0006912 291.8758  68.1672 15.13218071102538
ARIRANG-2 (KOMPSAT-2)   
1 29268U 06031A   26168.16834726  .00000033  00000+0  14713-4 0  9992
2 29268  97.8299 352.6156 0015932  74.5668  50.4674 14.64659383 61470
LAPAN-TUBSAT            
1 29709U 07001A   26168.18701164 -.00000220  00000+0 -18559-4 0  9993
2 29709  98.1335 167.4108 0011874 179.1902 180.9333 14.85948953 51150
HAIYANG-1B              
1 31113U 07010A   26168.21472708  .00000068  00000+0  41575-4 0  9990
2 31113  98.3495 150.0588 0013015 196.2368 163.8401 14.31026885   642
COSMO-SKYMED 1          
1 31598U 07023A   26168.20184767  .00002210  00000+0  19676-3 0  9992
2 31598  97.8847   0.0576 0001293  98.0483 262.0885 14.97099186 29798
TERRASAR-X              
1 31698U 07026A   26166.54501914  .00000298  00000+0  17394-4 0  9998
2 31698  97.4452 174.2739 0001604  89.1769 270.9649 15.19148908 52970
WORLDVIEW-1 (WV-1)      
1 32060U 07041A   26168.16077470  .00004754  00000+0  19765-3 0  9998
2 32060  97.3882 287.9044 0002265  21.6029 338.5303 15.24266290 42872
YAOGAN-3                
1 32289U 07055A   26168.19447189  .00001214  00000+0  12918-3 0  9998
2 32289  97.8151 198.0721 0001952  81.6543 278.4896 14.90781893  5873
COSMO-SKYMED 2          
1 32376U 07059A   26168.16104668  .00000316  00000+0  46291-4 0  9992
2 32376  97.8886 351.7594 0001351  87.1710 272.9658 14.82155005  2009
RADARSAT-2              
1 32382U 07061A   26168.24772530  .00000133  00000+0  68463-4 0  9992
2 32382  98.5770 175.1793 0001311  83.9483 276.1849 14.29982189965965
CARTOSAT-2A             
1 32783U 08021A   26168.18181051  .00000764  00000+0  10944-3 0  9999
2 32783  97.7631 216.8906 0013193 108.8315 251.4329 14.79240086978802
HUANJING 1A (HJ-1A)     
1 33320U 08041A   26168.23375272  .00000654  00000+0  84507-4 0  9990
2 33320  97.6676 154.0702 0019943 134.5866 225.6980 14.83984870958413
HUANJING 1B (HJ-1B)     
1 33321U 08041B   26168.20284487  .00001323  00000+0  16608-3 0  9995
2 33321  97.6513 157.2124 0036067 180.8084 179.3079 14.83319000958410
GEOEYE 1                
1 33331U 08042A   26168.15190941  .00000364  00000+0  77243-4 0  9999
2 33331  98.1236 242.0836 0005399  69.7772 290.4011 14.64725682950144
THEOS                   
1 33396U 08049A   26168.18022824 -.00000195  00000+0 -71677-4 0  9993
2 33396  98.5571 225.4640 0001219  80.1710 279.9605 14.20132720917966
COSMO-SKYMED 3          
1 33412U 08054A   26168.14315845  .00002638  00000+0  18046-3 0  9994
2 33412  97.8281  26.7131 0014174 267.1356  92.8249 15.06953532956932
YAOGAN-4                
1 33446U 08061A   26168.09963544  .00000802  00000+0  10458-3 0  9998
2 33446  97.9308 101.6106 0015730  72.7422 287.5512 14.83200033945656
GOSAT (IBUKI)           
1 33492U 09002A   26167.86562830  .00000941  00000+0  17441-3 0  9995
2 33492  98.0890 278.9506 0001527  82.1774 277.9604 14.67539630931415
DEIMOS-1                
1 35681U 09041A   26168.18637257  .00000037  00000+0  12527-4 0  9999
2 35681  97.7400 325.4136 0001684 130.9671 229.1685 14.75235825906888
DUBAISAT-1              
1 35682U 09041B   26167.95340502  .00000584  00000+0  94042-4 0  9997
2 35682  98.0052 301.2136 0011666  74.4564 285.7932 14.75122266905068
